[{"OBJECT_NAME":"STARLINK-3568","OBJECT_ID":"2022-022E","EPOCH":"2026-03-09T06:00:11.224224","MEAN_MOTION":15.08849092,"ECCENTRICITY":0.00011341,"INCLINATION":53.2194,"RA_OF_ASC_NODE":21.103,"ARG_OF_PERICENTER":91.177,"MEAN_ANOMALY":268.9352,"EPHEMERIS_TYPE":0,"CLASSIFICATION_TYPE":"U","NORAD_CAT_ID":51856,"ELEMENT_SET_NO":999,"REV_AT_EPOCH":22298,"BSTAR":1.0592192e-5,"MEAN_MOTION_DOT":-1.19e-6,"MEAN_MOTION_DDOT":0},{"OBJECT_NAME":"TITAN 3C TRANSTAGE DEB","OBJECT_ID":"1965-082PP","EPOCH":"2026-03-08T23:49:16.681152","MEAN_MOTION":15.10619215,"ECCENTRICITY":0.0014169,"INCLINATION":32.2612,"RA_OF_ASC_NODE":312.9247,"ARG_OF_PERICENTER":37.7873,"MEAN_ANOMALY":322.3781,"EPHEMERIS_TYPE":0,"CLASSIFICATION_TYPE":"U","NORAD_CAT_ID":3454,"ELEMENT_SET_NO":999,"REV_AT_EPOCH":23071,"BSTAR":0.00075143557,"MEAN_MOTION_DOT":0.00012814,"MEAN_MOTION_DDOT":0}]
